{"type": "FeatureCollection", "features": [ {"type": "Feature", "properties": {"norad_id": 39122, "name": "EUTELSAT 117 WEST A", "group": "eutelsat", "lat": -0.031308719101162244, "lon": -81.30148508384546, "alt_km": 35774.27432322013, "timestamp": "2025-12-02T21:34:00.944692+00:00", "meta": {"OBJECT_NAME": "EUTELSAT 117 WEST A", "OBJECT_ID": "2013-012A", "EPOCH": "2025-12-02T11:40:24.383712", "MEAN_MOTION": 1.0027179, "ECCENTRICITY": 0.0003109, "INCLINATION": 0.0348, "RA_OF_ASC_NODE": 53.0625, "ARG_OF_PERICENTER": 199.2197, "MEAN_ANOMALY": 237.6188, "EPHEMERIS_TYPE": 0, "CLASSIFICATION_TYPE": "U", "NORAD_CAT_ID": 39122, "ELEMENT_SET_NO": 999, "REV_AT_EPOCH": 4646, "BSTAR": 0, "MEAN_MOTION_DOT": 7e-08, "MEAN_MOTION_DDOT": 0}, "tle": {"line1": "1 39122U 13012A   25336.48639333  .00000007  00000+0  00000+0 0  9997", "line2": "2 39122   0.0348  53.0625 0003109 199.2197 237.6188  1.00271790 46468"}}, "geometry": {"type": "Point", "coordinates": [-81.30148508384546, -0.031308719101162244]}}, {"type": "Feature", "properties": {"norad_id": 39163, "name": "EUTELSAT 7B", "group": "eutelsat", "lat": 0.06983467788435968, "lon": 42.533996575926544, "alt_km": 35786.246288398674, "timestamp": "2025-12-02T21:34:00.944704+00:00", "meta": {"OBJECT_NAME": "EUTELSAT 7B", "OBJECT_ID": "2013-022A", "EPOCH": "2025-12-02T08:40:54.355008", "MEAN_MOTION": 1.00272289, "ECCENTRICITY": 0.0004322, "INCLINATION": 0.0677, "RA_OF_ASC_NODE": 357.4878, "ARG_OF_PERICENTER": 314.0993, "MEAN_ANOMALY": 257.1171, "EPHEMERIS_TYPE": 0, "CLASSIFICATION_TYPE": "U", "NORAD_CAT_ID": 39163, "ELEMENT_SET_NO": 999, "REV_AT_EPOCH": 4598, "BSTAR": 0, "MEAN_MOTION_DOT": 6.9e-07, "MEAN_MOTION_DDOT": 0}, "tle": {"line1": "1 39163U 13022A   25336.36174022  .00000069  00000+0  00000+0 0  9997", "line2": "2 39163   0.0677 357.4878 0004322 314.0993 257.1171  1.00272289 45987"}}, "geometry": {"type": "Point", "coordinates": [42.533996575926544, 0.06983467788435968]}}, {"type": "Feature", "properties": {"norad_id": 39612, "name": "EXPRESS-AT1", "group": "eutelsat", "lat": 0.013311355720886838, "lon": 91.47485521151357, "alt_km": 35785.780579478196, "timestamp": "2025-12-02T21:34:00.944717+00:00", "meta": {"OBJECT_NAME": "EXPRESS-AT1", "OBJECT_ID": "2014-010A", "EPOCH": "2025-12-02T08:54:38.039904", "MEAN_MOTION": 1.00269273, "ECCENTRICITY": 3.93e-05, "INCLINATION": 0.0142, "RA_OF_ASC_NODE": 280.8432, "ARG_OF_PERICENTER": 225.203, "MEAN_ANOMALY": 115.0989, "EPHEMERIS_TYPE": 0, "CLASSIFICATION_TYPE": "U", "NORAD_CAT_ID": 39612, "ELEMENT_SET_NO": 999, "REV_AT_EPOCH": 4284, "BSTAR": 0, "MEAN_MOTION_DOT": 9.9e-07, "MEAN_MOTION_DDOT": 0}, "tle": {"line1": "1 39612U 14010A   25336.37127361  .00000099  00000+0  00000+0 0  9992", "line2": "2 39612   0.0142 280.8432 0000393 225.2030 115.0989  1.00269273 42847"}}, "geometry": {"type": "Point", "coordinates": [91.47485521151357, 0.013311355720886838]}}, {"type": "Feature", "properties": {"norad_id": 39613, "name": "EXPRESS-AT2", "group": "eutelsat", "lat": -0.030701038547015173, "lon": 175.32566186293408, "alt_km": 35787.76924437883, "timestamp": "2025-12-02T21:34:00.944729+00:00", "meta": {"OBJECT_NAME": "EXPRESS-AT2", "OBJECT_ID": "2014-010B", "EPOCH": "2025-12-02T12:42:38.547648", "MEAN_MOTION": 1.00272151, "ECCENTRICITY": 0.0001203, "INCLINATION": 0.0173, "RA_OF_ASC_NODE": 303.9792, "ARG_OF_PERICENTER": 341.6992, "MEAN_ANOMALY": 116.4801, "EPHEMERIS_TYPE": 0, "CLASSIFICATION_TYPE": "U", "NORAD_CAT_ID": 39613, "ELEMENT_SET_NO": 999, "REV_AT_EPOCH": 4252, "BSTAR": 0, "MEAN_MOTION_DOT": -2.6e-06, "MEAN_MOTION_DDOT": 0}, "tle": {"line1": "1 39613U 14010B   25336.52961282 -.00000260  00000+0  00000+0 0  9999", "line2": "2 39613   0.0173 303.9792 0001203 341.6992 116.4801  1.00272151 42521"}}, "geometry": {"type": "Point", "coordinates": [175.32566186293408, -0.030701038547015173]}}, {"type": "Feature", "properties": {"norad_id": 39773, "name": "EUTELSAT 3B", "group": "eutelsat", "lat": 0.06124832511107071, "lon": 38.57762070795923, "alt_km": 35806.262620949674, "timestamp": "2025-12-02T21:34:00.944741+00:00", "meta": {"OBJECT_NAME": "EUTELSAT 3B", "OBJECT_ID": "2014-030A", "EPOCH": "2025-12-02T08:39:46.962144", "MEAN_MOTION": 1.00270599, "ECCENTRICITY": 0.0004749, "INCLINATION": 0.063, "RA_OF_ASC_NODE": 359.4396, "ARG_OF_PERICENTER": 227.4285, "MEAN_ANOMALY": 337.6427, "EPHEMERIS_TYPE": 0, "CLASSIFICATION_TYPE": "U", "NORAD_CAT_ID": 39773, "ELEMENT_SET_NO": 999, "REV_AT_EPOCH": 4209, "BSTAR": 0, "MEAN_MOTION_DOT": 4e-07, "MEAN_MOTION_DDOT": 0}, "tle": {"line1": "1 39773U 14030A   25336.36096021  .00000040  00000+0  00000+0 0  9995", "line2": "2 39773   0.0630 359.4396 0004749 227.4285 337.6427  1.00270599 42093"}}, "geometry": {"type": "Point", "coordinates": [38.57762070795923, 0.06124832511107071]}}, {"type": "Feature", "properties": {"norad_id": 40425, "name": "EUTELSAT 115 WEST B", "group": "eutelsat", "lat": 0.003874482497310594, "lon": -79.43541523594831, "alt_km": 35787.70287248488, "timestamp": "2025-12-02T21:34:00.944753+00:00", "meta": {"OBJECT_NAME": "EUTELSAT 115 WEST B", "OBJECT_ID": "2015-010B", "EPOCH": "2025-12-02T10:37:38.766720", "MEAN_MOTION": 1.00269409, "ECCENTRICITY": 4.88e-05, "INCLINATION": 0.017, "RA_OF_ASC_NODE": 149.052, "ARG_OF_PERICENTER": 249.23, "MEAN_ANOMALY": 77.7769, "EPHEMERIS_TYPE": 0, "CLASSIFICATION_TYPE": "U", "NORAD_CAT_ID": 40425, "ELEMENT_SET_NO": 999, "REV_AT_EPOCH": 3942, "BSTAR": 0, "MEAN_MOTION_DOT": -4e-08, "MEAN_MOTION_DDOT": 0}, "tle": {"line1": "1 40425U 15010B   25336.44280980 -.00000004  00000+0  00000+0 0  9999", "line2": "2 40425   0.0170 149.0520 0000488 249.2300  77.7769  1.00269409 39428"}}, "geometry": {"type": "Point", "coordinates": [-79.43541523594831, 0.003874482497310594]}}, {"type": "Feature", "properties": {"norad_id": 40875, "name": "EUTELSAT 8 WEST B", "group": "eutelsat", "lat": 0.06621297903040568, "lon": 27.513230732427466, "alt_km": 35798.118682952576, "timestamp": "2025-12-02T21:34:00.944764+00:00", "meta": {"OBJECT_NAME": "EUTELSAT 8 WEST B", "OBJECT_ID": "2015-039B", "EPOCH": "2025-12-02T08:36:39.760128", "MEAN_MOTION": 1.002715, "ECCENTRICITY": 0.0004115, "INCLINATION": 0.0662, "RA_OF_ASC_NODE": 345.0729, "ARG_OF_PERICENTER": 269.1331, "MEAN_ANOMALY": 298.4303, "EPHEMERIS_TYPE": 0, "CLASSIFICATION_TYPE": "U", "NORAD_CAT_ID": 40875, "ELEMENT_SET_NO": 999, "REV_AT_EPOCH": 3768, "BSTAR": 0, "MEAN_MOTION_DOT": -4.5e-07, "MEAN_MOTION_DDOT": 0}, "tle": {"line1": "1 40875U 15039B   25336.35879352 -.00000045  00000+0  00000+0 0  9991", "line2": "2 40875   0.0662 345.0729 0004115 269.1331 298.4303  1.00271500 37685"}}, "geometry": {"type": "Point", "coordinates": [27.513230732427466, 0.06621297903040568]}}, {"type": "Feature", "properties": {"norad_id": 41310, "name": "EUTELSAT 9B", "group": "eutelsat", "lat": -0.0005737903790463455, "lon": 44.49451479567111, "alt_km": 35802.071645406606, "timestamp": "2025-12-02T21:34:00.944776+00:00", "meta": {"OBJECT_NAME": "EUTELSAT 9B", "OBJECT_ID": "2016-005A", "EPOCH": "2025-12-02T08:41:24.307296", "MEAN_MOTION": 1.00271004, "ECCENTRICITY": 0.0004836, "INCLINATION": 0.0628, "RA_OF_ASC_NODE": 74.6272, "ARG_OF_PERICENTER": 189.4401, "MEAN_ANOMALY": 306.7388, "EPHEMERIS_TYPE": 0, "CLASSIFICATION_TYPE": "U", "NORAD_CAT_ID": 41310, "ELEMENT_SET_NO": 999, "REV_AT_EPOCH": 3614, "BSTAR": 0, "MEAN_MOTION_DOT": 8.2e-07, "MEAN_MOTION_DDOT": 0}, "tle": {"line1": "1 41310U 16005A   25336.36208689  .00000082  00000+0  00000+0 0  9990", "line2": "2 41310   0.0628  74.6272 0004836 189.4401 306.7388  1.00271004 36147"}}, "geometry": {"type": "Point", "coordinates": [44.49451479567111, -0.0005737903790463455]}}, {"type": "Feature", "properties": {"norad_id": 41382, "name": "EUTELSAT 65 WEST A", "group": "eutelsat", "lat": -0.00459469884044128, "lon": -29.69565094203218, "alt_km": 35782.852573336626, "timestamp": "2025-12-02T21:34:00.944788+00:00", "meta": {"OBJECT_NAME": "EUTELSAT 65 WEST A", "OBJECT_ID": "2016-014A", "EPOCH": "2025-12-02T08:20:18.826368", "MEAN_MOTION": 1.00271105, "ECCENTRICITY": 0.0002719, "INCLINATION": 0.0509, "RA_OF_ASC_NODE": 341.0284, "ARG_OF_PERICENTER": 276.9507, "MEAN_ANOMALY": 233.3555, "EPHEMERIS_TYPE": 0, "CLASSIFICATION_TYPE": "U", "NORAD_CAT_ID": 41382, "ELEMENT_SET_NO": 999, "REV_AT_EPOCH": 3556, "BSTAR": 0, "MEAN_MOTION_DOT": -2.56e-06, "MEAN_MOTION_DDOT": 0}, "tle": {"line1": "1 41382U 16014A   25336.34744012 -.00000256  00000+0  00000+0 0  9996", "line2": "2 41382   0.0509 341.0284 0002719 276.9507 233.3555  1.00271105 35563"}}, "geometry": {"type": "Point", "coordinates": [-29.69565094203218, -0.00459469884044128]}}, {"type": "Feature", "properties": {"norad_id": 41589, "name": "EUTELSAT 117 WEST B", "group": "eutelsat", "lat": 0.008631416598020454, "lon": -81.52949601664302, "alt_km": 35786.923968998555, "timestamp": "2025-12-02T21:34:00.944799+00:00", "meta": {"OBJECT_NAME": "EUTELSAT 117 WEST B", "OBJECT_ID": "2016-038B", "EPOCH": "2025-12-02T10:37:38.766720", "MEAN_MOTION": 1.0026853, "ECCENTRICITY": 2.02e-05, "INCLINATION": 0.0102, "RA_OF_ASC_NODE": 144.9746, "ARG_OF_PERICENTER": 219.6495, "MEAN_ANOMALY": 109.3395, "EPHEMERIS_TYPE": 0, "CLASSIFICATION_TYPE": "U", "NORAD_CAT_ID": 41589, "ELEMENT_SET_NO": 999, "REV_AT_EPOCH": 3469, "BSTAR": 0, "MEAN_MOTION_DOT": 9e-08, "MEAN_MOTION_DDOT": 0}, "tle": {"line1": "1 41589U 16038B   25336.44280980  .00000009  00000+0  00000+0 0  9996", "line2": "2 41589   0.0102 144.9746 0000202 219.6495 109.3395  1.00268530 34694"}}, "geometry": {"type": "Point", "coordinates": [-81.52949601664302, 0.008631416598020454]}}]}